# Made by eph2tle, compiled Feb 13 2019 14:45:51
#
#    The following TLEs (Two-Line Elements) were generated by fitting
# numerically-integrated ephemerides from the OEM_CARA files at
#
# http://soleil.ssl.berkeley.edu/ground_systems/products/THEMIS/THEMIS_D/
#
# to the SDP4/SGP4 models.  Each TLE is good for the interval between
# its epoch and the epoch of the subsequent TLE (usually one day).
# The maximum deviation between the numerically integrated ephemerides
# and the TLE-based ephemeris, in kilometers,  is given for each TLE
# as the "worst residual".
#
#    The above site gives data covering about 18 days.  These TLEs will
# be updated every week or so to keep them au courant.
#
#    Almost all other TLEs on this site were computed from observations.
# I've done that for the Themis objects in the past,  but they maneuver.
# Using the above ephemerides and fitting TLEs to them appears to work
# much better.  (Space-Track TLEs,  as of early 2019,  are junk.)
#
#    If you use a TLE outside the "correct" time range (between its MJD
# and that of the next TLE),  all bets are off.  I've carefully computed
# and minimized the worst error over the "correct" time frame,  but the
# ephemeris may (or may not) diverge wildly outside of it.
#
#    This fitting is done using the 'eph2tle' code packaged with Find_Orb.
# The code has details on how the TLEs were computed :
#
#    https://github.com/Bill-Gray/find_orb/eph2tle.cpp
#
#    Be warned:  the error given is that between the numerically
# integrated ephems and the TLE model.  The THEMIS ephemerides appear
# to be pretty good,  so I think (but am not sure) that in this case,
# the stated errors are close to the real errors.  But if there are
# additional errors,  you should regard the "worst residuals" shown
# below as a lower limit on how bad the TLEs are;  there's no guarantee
# that they aren't actually worse than that.
#
# Ephem range: 58506.000000 58545.000000 1.000000
#
# 1 NoradU COSPAR   Epoch.epoch     dn/dt/2  d2n/dt2/6 BSTAR    T El# C
# 2 NoradU Inclina RAAscNode Eccent  ArgPeri MeanAno  MeanMotion Rev# C

# Worst residual: 10.09 km
# MJD 58506.000000 (2019 Jan 23  0:00)
NORAD 30580 = 2007-004A = THEMIS A
1 30580U 07004A   19023.49919926  .00000000  00000-0  00000-0 0  4109
2 30580 008.7353 120.0459 8340768 262.7870 009.5804 00.87862987    04

# Worst residual: 11.21 km
# MJD 58507.000000 (2019 Jan 24  0:00)
NORAD 30580 = 2007-004A = THEMIS A
1 30580U 07004A   19024.49919926  .00000000  00000-0  00000-0 0  4100
2 30580 008.7351 119.8897 8342837 263.0479 325.7482 00.87854651    06

# Worst residual: 11.46 km
# MJD 58508.000000 (2019 Jan 25  0:00)
NORAD 30580 = 2007-004A = THEMIS A
1 30580U 07004A   19025.49919926  .00000000  00000-0  00000-0 0  4101
2 30580 008.7340 119.7001 8344366 263.3455 281.9054 00.87841102    01

# Worst residual: 12.54 km
# MJD 58509.000000 (2019 Jan 26  0:00)
NORAD 30580 = 2007-004A = THEMIS A
1 30580U 07004A   19026.49919926  .00000000  00000-0  00000-0 0  4102
2 30580 008.7320 119.4937 8345182 263.6634 238.0646 00.87833296    08

# Worst residual: 7.89 km
# MJD 58510.000000 (2019 Jan 27  0:00)
NORAD 30580 = 2007-004A = THEMIS A
1 30580U 07004A   19027.49919926  .00000000  00000-0  00000-0 0  4103
2 30580 008.7306 119.2487 8346372 264.0167 194.2469 00.87842552    09

# Worst residual: 13.47 km
# MJD 58511.000000 (2019 Jan 28  0:00)
NORAD 30580 = 2007-004A = THEMIS A
1 30580U 07004A   19028.49919926  .00000000  00000-0  00000-0 0  4104
2 30580 008.7303 119.0143 8345241 264.3555 150.4345 00.87841153    04

# Worst residual: 11.90 km
# MJD 58512.000000 (2019 Jan 29  0:00)
NORAD 30580 = 2007-004A = THEMIS A
1 30580U 07004A   19029.49919926  .00000000  00000-0  00000-0 0  4105
2 30580 008.7316 118.8193 8344638 264.6538 106.6222 00.87846345    08

# Worst residual: 10.37 km
# MJD 58513.000000 (2019 Jan 30  0:00)
NORAD 30580 = 2007-004A = THEMIS A
1 30580U 07004A   19030.49919926  .00000000  00000-0  00000-0 0  4107
2 30580 008.7322 118.6168 8344495 264.9558 062.8269 00.87854752    06

# Worst residual: 10.46 km
# MJD 58514.000000 (2019 Jan 31  0:00)
NORAD 30580 = 2007-004A = THEMIS A
1 30580U 07004A   19031.49919926  .00000000  00000-0  00000-0 0  4108
2 30580 008.7331 118.4438 8344346 265.2292 019.0261 00.87863376    06

# Worst residual: 12.22 km
# MJD 58515.000000 (2019 Feb  1  0:00)
NORAD 30580 = 2007-004A = THEMIS A
1 30580U 07004A   19032.49919926  .00000000  00000-0  00000-0 0  4109
2 30580 008.7339 118.2933 8345021 265.4824 335.2136 00.87857682    03

# Worst residual: 14.61 km
# MJD 58516.000000 (2019 Feb  2  0:00)
NORAD 30580 = 2007-004A = THEMIS A
1 30580U 07004A   19033.49919926  .00000000  00000-0  00000-0 0  4100
2 30580 008.7344 118.1430 8345936 265.7312 291.4150 00.87847202    06

# Worst residual: 14.63 km
# MJD 58517.000000 (2019 Feb  3  0:00)
NORAD 30580 = 2007-004A = THEMIS A
1 30580U 07004A   19034.49919926  .00000000  00000-0  00000-0 0  4101
2 30580 008.7348 117.9895 8346752 265.9868 247.6081 00.87843368    02

# Worst residual: 40.22 km
# MJD 58518.000000 (2019 Feb  4  0:00)
NORAD 30580 = 2007-004A = THEMIS A
1 30580U 07004A   19035.49919926  .00000000  00000-0  00000-0 0  4102
2 30580 008.7427 118.0678 8347568 266.0183 203.7922 00.87838614    04

# Worst residual: 14.72 km
# MJD 58519.000000 (2019 Feb  5  0:00)
NORAD 30580 = 2007-004A = THEMIS A
1 30580U 07004A   19036.49919926  .00000000  00000-0  00000-0 0  4103
2 30580 008.6889 118.9575 8343111 265.2225 159.9726 00.87861546    02

# Worst residual: 12.25 km
# MJD 58520.000000 (2019 Feb  6  0:00)
NORAD 30580 = 2007-004A = THEMIS A
1 30580U 07004A   19037.49919926  .00000000  00000-0  00000-0 0  4104
2 30580 008.6895 118.8007 8342482 265.4847 116.2267 00.87858502    04

# Worst residual: 10.57 km
# MJD 58521.000000 (2019 Feb  7  0:00)
NORAD 30580 = 2007-004A = THEMIS A
1 30580U 07004A   19038.49919926  .00000000  00000-0  00000-0 0  4105
2 30580 008.6898 118.6251 8342555 265.7624 072.4863 00.87867145    01

# Worst residual: 12.00 km
# MJD 58522.000000 (2019 Feb  8  0:00)
NORAD 30580 = 2007-004A = THEMIS A
1 30580U 07004A   19039.49919926  .00000000  00000-0  00000-0 0  4106
2 30580 008.7368 117.1276 8347942 267.3606 028.6144 00.87859452    05

# Worst residual: 12.17 km
# MJD 58523.000000 (2019 Feb  9  0:00)
NORAD 30580 = 2007-004A = THEMIS A
1 30580U 07004A   19040.49919926  .00000000  00000-0  00000-0 0  4108
2 30580 008.7377 116.9726 8348060 267.6187 344.8075 00.87854251    09

# Worst residual: 12.10 km
# MJD 58524.000000 (2019 Feb 10  0:00)
NORAD 30580 = 2007-004A = THEMIS A
1 30580U 07004A   19041.49919926  .00000000  00000-0  00000-0 0  4109
2 30580 008.7386 116.8283 8348603 267.8643 301.0066 00.87845461    06

# Worst residual: 13.17 km
# MJD 58525.000000 (2019 Feb 11  0:00)
NORAD 30580 = 2007-004A = THEMIS A
1 30580U 07004A   19042.49919926  .00000000  00000-0  00000-0 0  4100
2 30580 008.7396 116.6910 8349236 268.1016 257.2141 00.87842062    03

# Worst residual: 11.10 km
# MJD 58526.000000 (2019 Feb 12  0:00)
NORAD 30580 = 2007-004A = THEMIS A
1 30580U 07004A   19043.49919926  .00000000  00000-0  00000-0 0  4101
2 30580 008.7408 116.5471 8351016 268.3497 213.4120 00.87848757    00

# Worst residual: 16.35 km
# MJD 58527.000000 (2019 Feb 13  0:00)
NORAD 30580 = 2007-004A = THEMIS A
1 30580U 07004A   19044.49919926  .00000000  00000-0  00000-0 0  4102
2 30580 008.7413 116.3776 8351424 268.6211 169.6107 00.87847156    01

# Worst residual: 11.32 km
# MJD 58528.000000 (2019 Feb 14  0:00)
NORAD 30580 = 2007-004A = THEMIS A
1 30580U 07004A   19045.49919926  .00000000  00000-0  00000-0 0  4103
2 30580 008.7416 116.2208 8350790 268.8859 125.8029 00.87842579    09

# Worst residual: 11.49 km
# MJD 58529.000000 (2019 Feb 15  0:00)
NORAD 30580 = 2007-004A = THEMIS A
1 30580U 07004A   19046.49919926  .00000000  00000-0  00000-0 0  4104
2 30580 008.7428 116.0501 8350670 269.1632 081.9918 00.87852006    01

# Worst residual: 9.88 km
# MJD 58530.000000 (2019 Feb 16  0:00)
NORAD 30580 = 2007-004A = THEMIS A
1 30580U 07004A   19047.49919926  .00000000  00000-0  00000-0 0  4105
2 30580 008.7444 115.8512 8350303 269.4676 038.1708 00.87865963    09

# Worst residual: 11.27 km
# MJD 58531.000000 (2019 Feb 17  0:00)
NORAD 30580 = 2007-004A = THEMIS A
1 30580U 07004A   19048.49919926  .00000000  00000-0  00000-0 0  4106
2 30580 008.7462 115.6325 8349993 269.7906 354.3536 00.87861562    04

# Worst residual: 13.19 km
# MJD 58532.000000 (2019 Feb 18  0:00)
NORAD 30580 = 2007-004A = THEMIS A
1 30580U 07004A   19049.49919926  .00000000  00000-0  00000-0 0  4107
2 30580 008.7484 115.4351 8350528 270.0887 310.5466 00.87848802    02

# Worst residual: 13.24 km
# MJD 58533.000000 (2019 Feb 19  0:00)
NORAD 30580 = 2007-004A = THEMIS A
1 30580U 07004A   19050.49919926  .00000000  00000-0  00000-0 0  4109
2 30580 008.7503 115.2842 8351910 270.3398 266.7433 00.87847616    01

# Worst residual: 11.21 km
# MJD 58534.000000 (2019 Feb 20  0:00)
NORAD 30580 = 2007-004A = THEMIS A
1 30580U 07004A   19051.49919926  .00000000  00000-0  00000-0 0  4100
2 30580 008.7536 115.1299 8354389 270.5947 222.9352 00.87848395    06

# Worst residual: 12.43 km
# MJD 58535.000000 (2019 Feb 21  0:00)
NORAD 30580 = 2007-004A = THEMIS A
1 30580U 07004A   19052.49919926  .00000000  00000-0  00000-0 0  4101
2 30580 008.7555 114.9262 8355926 270.9041 179.1174 00.87839440    07

# Worst residual: 11.31 km
# MJD 58536.000000 (2019 Feb 22  0:00)
NORAD 30580 = 2007-004A = THEMIS A
1 30580U 07004A   19053.49919926  .00000000  00000-0  00000-0 0  4102
2 30580 008.7558 114.7121 8356104 271.2343 135.2875 00.87831736    01

# Worst residual: 12.99 km
# MJD 58537.000000 (2019 Feb 23  0:00)
NORAD 30580 = 2007-004A = THEMIS A
1 30580U 07004A   19054.49919926  .00000000  00000-0  00000-0 0  4103
2 30580 008.7581 114.4801 8356988 271.5789 091.4638 00.87845444    07

# Worst residual: 12.11 km
# MJD 58538.000000 (2019 Feb 24  0:00)
NORAD 30580 = 2007-004A = THEMIS A
1 30580U 07004A   19055.49919926  .00000000  00000-0  00000-0 0  4104
2 30580 008.7617 114.2176 8356610 271.9534 047.6295 00.87858686    08

# Worst residual: 8.94 km
# MJD 58539.000000 (2019 Feb 25  0:00)
NORAD 30580 = 2007-004A = THEMIS A
1 30580U 07004A   19056.49919926  .00000000  00000-0  00000-0 0  4105
2 30580 008.7644 113.9552 8356132 272.3249 003.8003 00.87861049    07

# Worst residual: 12.90 km
# MJD 58540.000000 (2019 Feb 26  0:00)
NORAD 30580 = 2007-004A = THEMIS A
1 30580U 07004A   19057.49919926  .00000000  00000-0  00000-0 0  4106
2 30580 008.7671 113.7376 8355926 272.6452 319.9989 00.87848833    08

# Worst residual: 15.12 km
# MJD 58541.000000 (2019 Feb 27  0:00)
NORAD 30580 = 2007-004A = THEMIS A
1 30580U 07004A   19058.49919926  .00000000  00000-0  00000-0 0  4107
2 30580 008.7701 113.5489 8356161 272.9359 276.2025 00.87842952    08

# Worst residual: 15.36 km
# MJD 58542.000000 (2019 Feb 28  0:00)
NORAD 30580 = 2007-004A = THEMIS A
1 30580U 07004A   19059.49919926  .00000000  00000-0  00000-0 0  4108
2 30580 008.7724 113.4106 8357308 273.1782 232.4053 00.87847500    04

# Worst residual: 8.29 km
# MJD 58543.000000 (2019 Mar  1  0:00)
NORAD 30580 = 2007-004A = THEMIS A
1 30580U 07004A   19060.49919926  .00000000  00000-0  00000-0 0  4100
2 30580 008.7756 113.2191 8358826 273.4693 188.6196 00.87853968    06

# Worst residual: 14.22 km
# MJD 58544.000000 (2019 Mar  2  0:00)
NORAD 30580 = 2007-004A = THEMIS A
1 30580U 07004A   19061.49919926  .00000000  00000-0  00000-0 0  4101
2 30580 008.7777 113.0387 8357717 273.7539 144.8228 00.87840670    00
Avg worst resid: 12.31 km
Worst residual in entire run: 16.35 km on MJD 58527.0
       1     3     10    30    100   300   1K    3K    10K   km
     0     0     3    15     0     0     0     0     0     0
